CTC1_L_00426016-03
1 10062U 23727OY  26075.70034722  .00000000  00000+0  00000-0 0  9994
2 10062 100.0000 180.0000 0000000   0.0000   0.0000 12.65579349    13
CTC1_L_00426016-04
1 10063U 25561MZ  26075.70034722  .00000000  00000+0  00000-0 0  9993
2 10063 100.0000 180.0000 0000000   0.0000  90.0000 12.65579349    13
CTC1_L_00426017-01
1 10064U 24841CC  26075.70034722  .00000000  00000+0  00000-0 0  9994
2 10064 100.0000 192.0000 0000000   0.0000 192.0000 12.65579349    10
CTC1_L_00426017-02
1 10065U 22715KI  26075.70034722  .00000000  00000+0  00000-0 0  9993
2 10065 100.0000 192.0000 0000000   0.0000 282.0000 12.65579349    11
CTC1_L_00426017-03
1 10066U 24402VL  26075.70034722  .00000000  00000+0  00000-0 0  9999
2 10066 100.0000 192.0000 0000000   0.0000  12.0000 12.65579349    13
CTC1_L_00426017-04
1 10067U 23216NJ  26075.70034722  .00000000  00000+0  00000-0 0  9992
2 10067 100.0000 192.0000 0000000   0.0000 102.0000 12.65579349    14
CTC1_L_00426018-01
1 10068U 26518ST  26075.70034722  .00000000  00000+0  00000-0 0  9991
2 10068 100.0000 204.0000 0000000   0.0000 204.0000 12.65579349    12
CTC1_L_00426018-02
1 10069U 25838NM  26075.70034722  .00000000  00000+0  00000-0 0  9996
2 10069 100.0000 204.0000 0000000   0.0000 294.0000 12.65579349    12
CTC1_L_00426018-03
1 10070U 25336MC  26075.70034722  .00000000  00000+0  00000-0 0  9991
2 10070 100.0000 204.0000 0000000   0.0000  24.0000 12.65579349    15
CTC1_L_00426018-04
1 10071U 23235PR  26075.70034722  .00000000  00000+0  00000-0 0  9998
2 10071 100.0000 204.0000 0000000   0.0000 114.0000 12.65579349    16
CTC1_L_00426019-01
1 10072U 26588DD  26075.70034722  .00000000  00000+0  00000-0 0  9993
2 10072 100.0000 216.0000 0000000   0.0000 216.0000 12.65579349    13
CTC1_L_00426019-02
1 10073U 22968KU  26075.70034722  .00000000  00000+0  00000-0 0  9992
2 10073 100.0000 216.0000 0000000   0.0000 306.0000 12.65579349    14
CTC1_L_00426019-03
1 10074U 22853RY  26075.70034722  .00000000  00000+0  00000-0 0  9996
2 10074 100.0000 216.0000 0000000   0.0000  36.0000 12.65579349    15
CTC1_L_00426019-04
1 10075U 23644WG  26075.70034722  .00000000  00000+0  00000-0 0  9996
2 10075 100.0000 216.0000 0000000   0.0000 126.0000 12.65579349    16
CTC1_L_00426020-01
1 10076U 23350C   26075.70034722  .00000000  00000+0  00000-0 0  9991
2 10076 100.0000 228.0000 0000000   0.0000 228.0000 12.65579349    13
CTC1_L_00426020-02
1 10077U 23949XD  26075.70034722  .00000000  00000+0  00000-0 0  9996
2 10077 100.0000 228.0000 0000000   0.0000 318.0000 12.65579349    14
CTC1_L_00426020-03
1 10078U 23669HH  26075.70034722  .00000000  00000+0  00000-0 0  9996
2 10078 100.0000 228.0000 0000000   0.0000  48.0000 12.65579349    15
CTC1_L_00426020-04
1 10079U 25890BC  26075.70034722  .00000000  00000+0  00000-0 0  9995
2 10079 100.0000 228.0000 0000000   0.0000 138.0000 12.65579349    16
CTC1_L_00426021-01
1 10080U 25335RW  26075.70034722  .00000000  00000+0  00000-0 0  9991
2 10080 100.0000 240.0000 0000000   0.0000 240.0000 12.65579349    16
CTC1_L_00426021-02
1 10081U 26489FP  26075.70034722  .00000000  00000+0  00000-0 0  9993
2 10081 100.0000 240.0000 0000000   0.0000 330.0000 12.65579349    17
CTC1_L_00426021-03
1 10082U 22047DQ  26075.70034722  .00000000  00000+0  00000-0 0  9990
2 10082 100.0000 240.0000 0000000   0.0000  60.0000 12.65579349    18
CTC1_L_00426021-04
1 10083U 22637DG  26075.70034722  .00000000  00000+0  00000-0 0  9996
2 10083 100.0000 240.0000 0000000   0.0000 150.0000 12.65579349    19
CTC1_L_00426022-01
1 10084U 22788TK  26075.70034722  .00000000  00000+0  00000-0 0  9994
2 10084 100.0000 252.0000 0000000   0.0000 252.0000 12.65579349    16
CTC1_L_00426022-02
1 10085U 24912JG  26075.70034722  .00000000  00000+0  00000-0 0  9996
2 10085 100.0000 252.0000 0000000   0.0000 342.0000 12.65579349    17
CTC1_L_00426022-03
1 10086U 25328GN  26075.70034722  .00000000  00000+0  00000-0 0  9999
2 10086 100.0000 252.0000 0000000   0.0000  72.0000 12.65579349    18
CTC1_L_00426022-04
1 10087U 22348M   26075.70034722  .00000000  00000+0  00000-0 0  9999
2 10087 100.0000 252.0000 0000000   0.0000 162.0000 12.65579349    19
CTC1_L_00426023-01
1 10088U 24254YE  26075.70034722  .00000000  00000+0  00000-0 0  9998
2 10088 100.0000 264.0000 0000000   0.0000 264.0000 12.65579349    16
CTC1_L_00426023-02
1 10089U 23656LZ  26075.70034722  .00000000  00000+0  00000-0 0  9994
2 10089 100.0000 264.0000 0000000   0.0000 354.0000 12.65579349    17
CTC1_L_00426023-03
1 10090U 25396CU  26075.70034722  .00000000  00000+0  00000-0 0  9999
2 10090 100.0000 264.0000 0000000   0.0000  84.0000 12.65579349    19
CTC1_L_00426023-04
1 10091U 24154CK  26075.70034722  .00000000  00000+0  00000-0 0  9991
2 10091 100.0000 264.0000 0000000   0.0000 174.0000 12.65579349    10
CTC1_L_00426024-01
1 10092U 23811SI  26075.70034722  .00000000  00000+0  00000-0 0  9991
2 10092 100.0000 276.0000 0000000   0.0000 276.0000 12.65579349    17
CTC1_L_00426024-02
1 10093U 24006KI  26075.70034722  .00000000  00000+0  00000-0 0  9999
2 10093 100.0000 276.0000 0000000   0.0000   6.0000 12.65579349    19
CTC1_L_00426024-03
1 10094U 22682XJ  26075.70034722  .00000000  00000+0  00000-0 0  9998
2 10094 100.0000 276.0000 0000000   0.0000  96.0000 12.65579349    19
CTC1_L_00426024-04
1 10095U 22060LQ  26075.70034722  .00000000  00000+0  00000-0 0  9999
2 10095 100.0000 276.0000 0000000   0.0000 186.0000 12.65579349    10
CTC1_L_00426025-01
1 10096U 23460MK  26075.70034722  .00000000  00000+0  00000-0 0  9995
2 10096 100.0000 288.0000 0000000   0.0000 288.0000 12.65579349    17
CTC1_L_00426025-02
1 10097U 24389KQ  26075.70034722  .00000000  00000+0  00000-0 0  9997
2 10097 100.0000 288.0000 0000000   0.0000  18.0000 12.65579349    19
CTC1_L_00426025-03
1 10098U 24213IE  26075.70034722  .00000000  00000+0  00000-0 0  9994
2 10098 100.0000 288.0000 0000000   0.0000 108.0000 12.65579349    10
CTC1_L_00426025-04
1 10099U 24491HW  26075.70034722  .00000000  00000+0  00000-0 0  9993
2 10099 100.0000 288.0000 0000000   0.0000 198.0000 12.65579349    10
CTC1_L_00426026-01
1 10100U 24514WQ  26075.70034722  .00000000  00000+0  00000-0 0  9992
2 10100 100.0000 300.0000 0000000   0.0000 300.0000 12.65579349    13
CTC1_L_00426026-02
1 10101U 25672GK  26075.70034722  .00000000  00000+0  00000-0 0  9999
2 10101 100.0000 300.0000 0000000   0.0000  30.0000 12.65579349    14
CTC1_L_00426026-03
1 10102U 26004KO  26075.70034722  .00000000  00000+0  00000-0 0  9990
2 10102 100.0000 300.0000 0000000   0.0000 120.0000 12.65579349    15
CTC1_L_00426026-04
1 10103U 25690ZR  26075.70034722  .00000000  00000+0  00000-0 0  9991
2 10103 100.0000 300.0000 0000000   0.0000 210.0000 12.65579349    16
CTC1_L_00426027-01
1 10104U 24789SD  26075.70034722  .00000000  00000+0  00000-0 0  9990
2 10104 100.0000 312.0000 0000000   0.0000 312.0000 12.65579349    13
CTC1_L_00426027-02
1 10105U 25360EW  26075.70034722  .00000000  00000+0  00000-0 0  9997
2 10105 100.0000 312.0000 0000000   0.0000  42.0000 12.65579349    14
CTC1_L_00426027-03
1 10106U 26697PB  26075.70034722  .00000000  00000+0  00000-0 0  9992
2 10106 100.0000 312.0000 0000000   0.0000 132.0000 12.65579349    15
CTC1_L_00426027-04
1 10107U 24987MM  26075.70034722  .00000000  00000+0  00000-0 0  9993
2 10107 100.0000 312.0000 0000000   0.0000 222.0000 12.65579349    16
CTC1_L_00426028-01
1 10108U 25146HB  26075.70034722  .00000000  00000+0  00000-0 0  9992
2 10108 100.0000 324.0000 0000000   0.0000 324.0000 12.65579349    13
CTC1_L_00426028-02
1 10109U 23342IC  26075.70034722  .00000000  00000+0  00000-0 0  9999
2 10109 100.0000 324.0000 0000000   0.0000  54.0000 12.65579349    14
CTC1_L_00426028-03
1 10110U 24100S   26075.70034722  .00000000  00000+0  00000-0 0  9994
2 10110 100.0000 324.0000 0000000   0.0000 144.0000 12.65579349    16
CTC1_L_00426028-04
1 10111U 22630XN  26075.70034722  .00000000  00000+0  00000-0 0  9991
2 10111 100.0000 324.0000 0000000   0.0000 234.0000 12.65579349    17
CTC1_L_00426029-01
1 10112U 26405RD  26075.70034722  .00000000  00000+0  00000-0 0  9996
2 10112 100.0000 336.0000 0000000   0.0000 336.0000 12.65579349    14
CTC1_L_00426029-02
1 10113U 25401GN  26075.70034722  .00000000  00000+0  00000-0 0  9992
2 10113 100.0000 336.0000 0000000   0.0000  66.0000 12.65579349    15
CTC1_L_00426029-03
1 10114U 25238WG  26075.70034722  .00000000  00000+0  00000-0 0  9991
2 10114 100.0000 336.0000 0000000   0.0000 156.0000 12.65579349    16
CTC1_L_00426029-04
1 10115U 24393NI  26075.70034722  .00000000  00000+0  00000-0 0  9993
2 10115 100.0000 336.0000 0000000   0.0000 246.0000 12.65579349    17
CTC1_L_00426030-01
1 10116U 24499GF  26075.70034722  .00000000  00000+0  00000-0 0  9991
2 10116 100.0000 348.0000 0000000   0.0000 348.0000 12.65579349    14
CTC1_L_00426030-02
1 10117U 23676MM  26075.70034722  .00000000  00000+0  00000-0 0  9998
2 10117 100.0000 348.0000 0000000   0.0000  78.0000 12.65579349    15
CTC1_L_00426030-03
1 10118U 23931VT  26075.70034722  .00000000  00000+0  00000-0 0  9993
2 10118 100.0000 348.0000 0000000   0.0000 168.0000 12.65579349    16
CTC1_L_00426030-04
1 10119U 26254BG  26075.70034722  .00000000  00000+0  00000-0 0  9995
2 10119 100.0000 348.0000 0000000   0.0000 258.0000 12.65579349    17
